ONEWEB-0627             
1 55168U 23004AE  23250.39300421  .00000047  00000+0  72156-4 0  9993
2 55168  87.9587 207.3496 0002130  54.3946 305.7391 13.30819287 34062
ONEWEB-0628             
1 55169U 23004AF  23250.91667824  .00000014  00000+0  00000+0 0  9993
2 55169  87.8258 192.1452 0006435 163.4047 357.0940 13.35192162  5414
ONEWEB-0629             
1 55170U 23004AG  23250.35423990  .00000139  00000+0  26475-3 0  9993
2 55170  87.9737 207.3280 0002795 102.5937 257.5515 13.30971356 34064
ONEWEB-0631             
1 55171U 23004AH  23250.91667824 -.00828974  00000+0 -19675+0 0  9999
2 55171  86.6886 185.4115 0003144 113.6291 215.7052 14.57118908  5701
ONEWEB-0709             
1 55172U 23004AJ  23250.37222858  .00000595  00000+0  16417-2 0  9997
2 55172  87.8940 222.4730 0002837  67.3012 292.8415 13.11412628 32990
ONEWEB-0710             
1 55173U 23004AK  23250.64356723 -.00078454  00000+0 -16890+0 0  9990
2 55173  87.9669 207.2852 0001866  80.2254 279.9096 13.30271570 34105
ONEWEB-0711             
1 55174U 23004AL  23250.34303680 -.00000403  00000+0 -11730-2 0  9992
2 55174  87.8935 222.4525 0001011  65.9415 294.1819 13.11408191 32951
ONEWEB-0713             
1 55175U 23004AM  23250.43952385  .00000320  00000+0  86628-3 0  9990
2 55175  87.8935 222.4430 0001301  83.5693 276.5583 13.11410883 32956
ONEWEB-0715             
1 55176U 23004AN  23250.35787837 -.00000200  00000+0 -60151-3 0  9992
2 55176  87.8920 222.4762 0001796  88.1142 272.0192 13.11408333 32984
ONEWEB-0716             
1 55177U 23004AP  23250.83209322  .00000070  00000+0  12031-3 0  9991
2 55177  87.9482 207.2646 0002460  90.3469 269.7951 13.30687493 34128
ONEWEB-0717             
1 55178U 23004AQ  23250.88592821 -.00001724  00000+0 -36774-2 0  9994
2 55178  87.9598 207.1928 0008710 153.5561 206.6024 13.30809973 34184
ONEWEB-0719             
1 55179U 23004AR  23250.36123420  .00000058  00000+0  94350-4 0  9996
2 55179  87.9662 207.2817 0004729 143.3354 216.8110 13.31506338 34064
ONEWEB-0530             
1 55796U 23029A   23250.91667824 -.00995288  00000+0 -38562+0 0  9998
2 55796  86.9421 119.7944 0002353 112.6907  40.7852 14.33376040 27789
ONEWEB-0534             
1 55797U 23029B   23250.91667824 -.01036695  00000+0 -39967+0 0  9998
2 55797  86.9615 119.7476 0001662  92.3225 345.7083 14.33767587 27766
ONEWEB-0556             
1 55798U 23029C   23250.91667824 -.01053084  00000+0 -40220+0 0  9994
2 55798  86.9441 119.7411 0003118  99.2459 173.8533 14.34297144 27764
ONEWEB-0562             
1 55799U 23029D   23250.91667824 -.01089982  00000+0 -41460+0 0  9998
2 55799  86.9548 119.7172 0003211 112.1875   8.5077 14.34084278  5729
ONEWEB-0563             
1 55800U 23029E   23250.91667824 -.01085749  00000+0 -43274+0 0  9993
2 55800  86.9575 119.8716 0001699 116.9575 202.7005 14.31691680 27758
ONEWEB-0564             
1 55801U 23029F   23250.91667824 -.01052831  00000+0 -40727+0 0  9990
2 55801  86.9535 119.7338 0003485 101.9625  45.2130 14.33645744 27783
ONEWEB-0638             
1 55802U 23029G   23250.60617707 -.00000025  00000+0 -84774-4 0  9994
2 55802  87.9532 131.5091 0001178  93.4273 266.6999 13.27483945 26226
ONEWEB-0639             
1 55803U 23029H   23250.89209988  .00000143  00000+0  32415-3 0  9997
2 55803  87.9276 146.6241 0003203  91.9330 268.2170 13.19722993 25255
ONEWEB-0640             
1 55804U 23029J   23250.91667824 -.00008501  00000+0 -18970-1 0  9994
2 55804  87.9579 131.4586 0001666 120.9484 265.4593 13.27462755 26963
ONEWEB-0641             
1 55805U 23029K   23250.28082237 -.00001511  00000+0 -38062-2 0  9993
2 55805  87.9207 146.7895 0001917  80.8247 279.3102 13.19731578 25180
ONEWEB-0642             
1 55806U 23029L   23250.73099058 -.00000200  00000+0 -53129-3 0  9999
2 55806  87.9273 146.6574 0003058  85.6284 274.5198 13.19724321 25235
ONEWEB-0643             
1 55807U 23029M   23250.91667824  .00018520  00000+0  41010-1 0  9998
2 55807  87.9533 131.4215 0002021  48.5898 204.3889 13.27620981  5330
ONEWEB-0644             
1 55808U 23029N   23250.72627925  .00000024  00000+0  27633-4 0  9994
2 55808  87.9203 146.6885 0002611  82.1512 277.9917 13.19729713 25231
ONEWEB-0645             
1 55809U 23029P   23250.64649862 -.00002601  00000+0 -65302-2 0  9998
2 55809  87.9275 146.6697 0002160 102.2933 257.8442 13.19735437 25221
ONEWEB-0646             
1 55810U 23029Q   23250.14580478  .00000112  00000+0  24622-3 0  9996
2 55810  87.9185 146.7792 0002205  76.2709 283.8669 13.19727837 25147
ONEWEB-0648             
1 55811U 23029R   23250.91667824 -.00008461  00000+0 -18917-1 0  9998
2 55811  87.9565 131.3856 0002429  92.2936 311.6471 13.27328450 26979
ONEWEB-0649             
1 55812U 23029S   23250.71518609  .00001301  00000+0  32186-2 0  9992
2 55812  87.9199 146.6810 0002249  86.5474 273.5915 13.19712006 25259
ONEWEB-0650             
1 55813U 23029T   23250.71045190 -.00002344  00000+0 -58890-2 0  9993
2 55813  87.9249 146.6563 0002350  79.6817 280.4581 13.19735926 25227
ONEWEB-0652             
1 55814U 23029U   23250.21204495  .00000107  00000+0  20732-3 0  9992
2 55814  87.9455 131.5501 0001645  91.3158 268.8168 13.27852644 26832
ONEWEB-0653             
1 55815U 23029V   23250.91667824 -.00008990  00000+0 -20124-1 0  9992
2 55815  87.9438 131.3340 0004240  96.6013 352.7118 13.27249172 26952
ONEWEB-0654             
1 55816U 23029W   23250.63640248 -.00000414  00000+0 -95053-3 0  9991
2 55816  87.9447 131.4527 0000667 358.2707   1.8428 13.27451675 26259
ONEWEB-0656             
1 55817U 23029X   23250.91667824 -.01127115  00000+0 -46309+0 0  9997
2 55817  86.9752 120.0171 0002914  87.2867 327.1080 14.30246058 27756
ONEWEB-0657             
1 55818U 23029Y   23250.09921199  .00000062  00000+0  12242-3 0  9996
2 55818  87.9173 146.7831 0002263  48.8798 311.2530 13.19727947 25159
ONEWEB-0658             
1 55819U 23029Z   23250.09446321  .00000055  00000+0  10443-3 0  9999
2 55819  87.9261 146.7348 0002546  83.5150 276.6273 13.19728641 25164
ONEWEB-0660             
1 55820U 23029AA  23250.91667824 -.00010928  00000+0 -24201-1 0  9992
2 55820  87.9482 131.3663 0002902 103.0898 154.2011 13.27959142  5344
ONEWEB-0661             
1 55821U 23029AB  23250.20294527  .00005186  00000+0  11466-1 0  9998
2 55821  87.9548 131.5763 0001424 136.2495 223.8755 13.27700006 26164
ONEWEB-0662             
1 55822U 23029AC  23250.91667824 -.00010796  00000+0 -24060-1 0  9990
2 55822  87.9543 131.4395 0001553 116.8206  73.0414 13.27544088  5381
ONEWEB-0663             
1 55823U 23029AD  23250.91667824 -.01084867  00000+0 -43844+0 0  9991
2 55823  86.9668 120.0210 0002170 110.6886 335.1188 14.30976140  5788
ONEWEB-0664             
1 55824U 23029AE  23250.91667824 -.01093778  00000+0 -44201+0 0  9991
2 55824  86.9738 120.0040 0002017  98.0952 262.2711 14.31005024 27759
ONEWEB-0665             
1 55825U 23029AF  23250.75731630  .00000042  00000+0  64553-4 0  9997
2 55825  87.9518 131.4449 0003010 101.7925 258.3550 13.27823239 26253
ONEWEB-0666             
1 55826U 23029AG  23250.91667824 -.01100403  00000+0 -44012+0 0  9997
2 55826  86.9654 120.0423 0004073  81.1858  12.1361 14.31549536 27759
ONEWEB-0667             
1 55827U 23029AH  23250.91667824 -.01034844  00000+0 -43875+0 0  9999
2 55827  86.9815 120.0913 0002243 101.3647 168.8111 14.28880117 27752
ONEWEB-0669             
1 55828U 23029AJ  23250.91667824 -.01048826  00000+0 -42016+0 0  9991
2 55828  86.9711 120.0066 0003279 100.5488 341.1741 14.31845682 27758
ONEWEB-0670             
1 55829U 23029AK  23249.94035660  .00000135  00000+0  27054-3 0  9997
2 55829  87.9500 131.6088 0001224  69.4629 290.6640 13.27595270 26176
ONEWEB-0671             
1 55830U 23029AL  23250.69627218 -.00000035  00000+0 -11890-3 0  9991
2 55830  87.9279 146.6654 0001873  86.4060 273.7287 13.19734082 25225
ONEWEB-0672             
1 55831U 23029AM  23250.91667824 -.01119444  00000+0 -46435+0 0  9999
2 55831  86.9825 120.0436 0003090 103.9857 219.8476 14.29732453 27751
ONEWEB-0673             
1 55832U 23029AN  23250.67254230 -.00000008  00000+0 -51751-4 0  9992
2 55832  87.9172 146.7297 0002091  86.1429 273.9943 13.19720262 25228
ONEWEB-0674             
1 55833U 23029AP  23250.91667824 -.00008816  00000+0 -19611-1 0  9998
2 55833  87.9545 131.4190 0000617 108.2745 240.3208 13.27666863  5376
ONEWEB-0675             
1 55834U 23029AQ  23250.68836476 -.00000019  00000+0 -79445-4 0  9995
2 55834  87.9190 146.6990 0002196  65.4476 294.6885 13.19729082 25243
ONEWEB-0720             
1 55835U 23029AR  23250.22553770 -.00001085  00000+0 -27427-2 0  9994
2 55835  87.9184 146.7993 0002445 102.0397 258.1010 13.19729203 25103
ONEWEB-0537             
1 56046U 23043A   23250.62197422  .00002286  00000+0  24013-3 0  9998
2 56046  86.8915  78.7840 0005585  83.1836 277.0026 14.89019255 24763
ONEWEB-0538             
1 56047U 23043B   23250.81304841  .00002057  00000+0  21570-3 0  9996
2 56047  86.8952  78.7768 0004723  94.8483 265.3283 14.89046998 24796
ONEWEB-0546             
1 56048U 23043C   23250.78714476  .00007784  00000+0  82503-3 0  9997
2 56048  86.8879  78.6997 0000404 324.7986  35.3214 14.88998383 24795
ONEWEB-0547             
1 56049U 23043D   23250.91667824  .00042394  00000+0  83378-1 0  9992
2 56049  87.9665  85.7198 0003562  89.3422 178.3724 13.35296581  5504
ONEWEB-0548             
1 56050U 23043E   23250.84424291  .00028198  00000+0  29764-2 0  9991
2 56050  86.8971  78.8008 0002571 115.5361 244.6132 14.89146548 24799
ONEWEB-0549             
1 56051U 23043F   23250.91667824  .00044310  00000+0  86711-1 0  9999
2 56051  87.9637  85.7366 0002833  75.0891 212.8397 13.35611033  5542
ONEWEB-0550             
1 56052U 23043G   23250.91667824  .00042630  00000+0  84084-1 0  9994
2 56052  87.9699  85.7444 0004091  92.5344  42.3669 13.35105538  5493
